[{"OBJECT_NAME":"STARLINK-30123","OBJECT_ID":"2023-079R","EPOCH":"2025-12-10T19:30:43.369344","MEAN_MOTION":15.27585372,"ECCENTRICITY":0.00013805,"INCLINATION":43.001,"RA_OF_ASC_NODE":175.8628,"ARG_OF_PERICENTER":264.3373,"MEAN_ANOMALY":95.7321,"EPHEMERIS_TYPE":0,"CLASSIFICATION_TYPE":"U","NORAD_CAT_ID":56838,"ELEMENT_SET_NO":999,"REV_AT_EPOCH":14015,"BSTAR":5.9191167e-5,"MEAN_MOTION_DOT":1.367e-5,"MEAN_MOTION_DDOT":0},{"OBJECT_NAME":"STARLINK-30076","OBJECT_ID":"2023-079S","EPOCH":"2025-12-11T02:44:00.642048","MEAN_MOTION":15.02535202,"ECCENTRICITY":0.00011907,"INCLINATION":43.0036,"RA_OF_ASC_NODE":228.3698,"ARG_OF_PERICENTER":268.7556,"MEAN_ANOMALY":91.315,"EPHEMERIS_TYPE":0,"CLASSIFICATION_TYPE":"U","NORAD_CAT_ID":56839,"ELEMENT_SET_NO":999,"REV_AT_EPOCH":13956,"BSTAR":-9.127527e-6,"MEAN_MOTION_DOT":-3.27e-6,"MEAN_MOTION_DDOT":0},{"OBJECT_NAME":"STARLINK-30073","OBJECT_ID":"2023-079T","EPOCH":"2025-12-11T08:00:01.999872","MEAN_MOTION":15.80908917,"ECCENTRICITY":0.00015743,"INCLINATION":42.9741,"RA_OF_ASC_NODE":90.9996,"ARG_OF_PERICENTER":243.6173,"MEAN_ANOMALY":241.5681,"EPHEMERIS_TYPE":0,"CLASSIFICATION_TYPE":"U","NORAD_CAT_ID":56840,"ELEMENT_SET_NO":999,"REV_AT_EPOCH":602,"BSTAR":-8.0210007e-5,"MEAN_MOTION_DOT":-0.00016534,"MEAN_MOTION_DDOT":0},{"OBJECT_NAME":"STARLINK-30078","OBJECT_ID":"2023-079U","EPOCH":"2025-12-10T16:01:14.228256","MEAN_MOTION":15.2758444,"ECCENTRICITY":0.00013341,"INCLINATION":43.002,"RA_OF_ASC_NODE":202.1164,"ARG_OF_PERICENTER":260.329,"MEAN_ANOMALY":99.7411,"EPHEMERIS_TYPE":0,"CLASSIFICATION_TYPE":"U","NORAD_CAT_ID":56841,"ELEMENT_SET_NO":999,"REV_AT_EPOCH":13983,"BSTAR":0.00014655033,"MEAN_MOTION_DOT":3.773e-5,"MEAN_MOTION_DDOT":0},{"OBJECT_NAME":"STARLINK-30135","OBJECT_ID":"2023-079V","EPOCH":"2025-12-11T02:01:00.311232","MEAN_MOTION":15.02540907,"ECCENTRICITY":0.00010714,"INCLINATION":43.0027,"RA_OF_ASC_NODE":228.9215,"ARG_OF_PERICENTER":258.7069,"MEAN_ANOMALY":101.3653,"EPHEMERIS_TYPE":0,"CLASSIFICATION_TYPE":"U","NORAD_CAT_ID":56842,"ELEMENT_SET_NO":999,"REV_AT_EPOCH":13955,"BSTAR":6.4777631e-5,"MEAN_MOTION_DOT":6.72e-6,"MEAN_MOTION_DDOT":0},{"OBJECT_NAME":"STARLINK-30137","OBJECT_ID":"2023-079W","EPOCH":"2025-12-11T01:41:49.744896","MEAN_MOTION":15.02535447,"ECCENTRICITY":8.006e-5,"INCLINATION":43.0025,"RA_OF_ASC_NODE":228.8213,"ARG_OF_PERICENTER":282.2756,"MEAN_ANOMALY":77.7996,"EPHEMERIS_TYPE":0,"CLASSIFICATION_TYPE":"U","NORAD_CAT_ID":56843,"ELEMENT_SET_NO":999,"REV_AT_EPOCH":13955,"BSTAR":2.4548621e-5,"MEAN_MOTION_DOT":1.28e-6,"MEAN_MOTION_DDOT":0},{"OBJECT_NAME":"STARLINK-30136","OBJECT_ID":"2023-079X","EPOCH":"2025-12-10T23:08:43.557792","MEAN_MOTION":15.02538109,"ECCENTRICITY":9.17e-5,"INCLINATION":43.0031,"RA_OF_ASC_NODE":229.7288,"ARG_OF_PERICENTER":274.2599,"MEAN_ANOMALY":85.8139,"EPHEMERIS_TYPE":0,"CLASSIFICATION_TYPE":"U","NORAD_CAT_ID":56844,"ELEMENT_SET_NO":999,"REV_AT_EPOCH":13953,"BSTAR":8.0938e-5,"MEAN_MOTION_DOT":8.9e-6,"MEAN_MOTION_DDOT":0},{"OBJECT_NAME":"STARLINK-6206","OBJECT_ID":"2023-083A","EPOCH":"2025-12-10T23:51:02.190240","MEAN_MOTION":15.02563204,"ECCENTRICITY":0.00014455,"INCLINATION":43.0042,"RA_OF_ASC_NODE":204.1254,"ARG_OF_PERICENTER":263.8151,"MEAN_ANOMALY":96.2527,"EPHEMERIS_TYPE":0,"CLASSIFICATION_TYPE":"U","NORAD_CAT_ID":56876,"ELEMENT_SET_NO":999,"REV_AT_EPOCH":13832,"BSTAR":-0.00091074161,"MEAN_MOTION_DOT":-0.00012493,"MEAN_MOTION_DDOT":0},{"OBJECT_NAME":"STARLINK-6209","OBJECT_ID":"2023-083B","EPOCH":"2025-12-10T23:39:52.737984","MEAN_MOTION":15.02537976,"ECCENTRICITY":0.00011693,"INCLINATION":43.0021,"RA_OF_ASC_NODE":204.0648,"ARG_OF_PERICENTER":274.4943,"MEAN_ANOMALY":85.5766,"EPHEMERIS_TYPE":0,"CLASSIFICATION_TYPE":"U","NORAD_CAT_ID":56877,"ELEMENT_SET_NO":999,"REV_AT_EPOCH":13832,"BSTAR":4.6168131e-5,"MEAN_MOTION_DOT":4.2e-6,"MEAN_MOTION_DDOT":0},{"OBJECT_NAME":"STARLINK-6182","OBJECT_ID":"2023-083C","EPOCH":"2025-12-10T22:13:43.927104","MEAN_MOTION":15.02540386,"ECCENTRICITY":0.0001061,"INCLINATION":43.0021,"RA_OF_ASC_NODE":204.4786,"ARG_OF_PERICENTER":271.0061,"MEAN_ANOMALY":89.066,"EPHEMERIS_TYPE":0,"CLASSIFICATION_TYPE":"U","NORAD_CAT_ID":56878,"ELEMENT_SET_NO":999,"REV_AT_EPOCH":13831,"BSTAR":1.9189e-5,"MEAN_MOTION_DOT":5.6e-7,"MEAN_MOTION_DDOT":0},{"OBJECT_NAME":"STARLINK-5707","OBJECT_ID":"2023-083D","EPOCH":"2025-12-10T22:08:57.150816","MEAN_MOTION":15.02526108,"ECCENTRICITY":8.98e-5,"INCLINATION":43.0027,"RA_OF_ASC_NODE":204.4551,"ARG_OF_PERICENTER":265.5778,"MEAN_ANOMALY":94.4962,"EPHEMERIS_TYPE":0,"CLASSIFICATION_TYPE":"U","NORAD_CAT_ID":56879,"ELEMENT_SET_NO":999,"REV_AT_EPOCH":13831,"BSTAR":-2.9918e-5,"MEAN_MOTION_DOT":-6.07e-6,"MEAN_MOTION_DDOT":0},{"OBJECT_NAME":"STARLINK-6177","OBJECT_ID":"2023-083E","EPOCH":"2025-12-10T23:20:41.971200","MEAN_MOTION":15.02537042,"ECCENTRICITY":0.00011743,"INCLINATION":43.0021,"RA_OF_ASC_NODE":203.9663,"ARG_OF_PERICENTER":273.3935,"MEAN_ANOMALY":86.6773,"EPHEMERIS_TYPE":0,"CLASSIFICATION_TYPE":"U","NORAD_CAT_ID":56880,"ELEMENT_SET_NO":999,"REV_AT_EPOCH":13832,"BSTAR":-4.2384224e-5,"MEAN_MOTION_DOT":-7.76e-6,"MEAN_MOTION_DDOT":0},{"OBJECT_NAME":"STARLINK-5853","OBJECT_ID":"2023-083F","EPOCH":"2025-12-11T01:17:12.490656","MEAN_MOTION":15.02522862,"ECCENTRICITY":0.00011189,"INCLINATION":43.0022,"RA_OF_ASC_NODE":203.7135,"ARG_OF_PERICENTER":280.4687,"MEAN_ANOMALY":79.6029,"EPHEMERIS_TYPE":0,"CLASSIFICATION_TYPE":"U","NORAD_CAT_ID":56881,"ELEMENT_SET_NO":999,"REV_AT_EPOCH":13833,"BSTAR":-8.6414444e-5,"MEAN_MOTION_DOT":-1.37e-5,"MEAN_MOTION_DDOT":0},{"OBJECT_NAME":"STARLINK-6175","OBJECT_ID":"2023-083G","EPOCH":"2025-12-11T00:58:03.993600","MEAN_MOTION":15.02502752,"ECCENTRICITY":0.00013988,"INCLINATION":43.0049,"RA_OF_ASC_NODE":203.6077,"ARG_OF_PERICENTER":264.2163,"MEAN_ANOMALY":95.852,"EPHEMERIS_TYPE":0,"CLASSIFICATION_TYPE":"U","NORAD_CAT_ID":56882,"ELEMENT_SET_NO":999,"REV_AT_EPOCH":13833,"BSTAR":-0.00015367139,"MEAN_MOTION_DOT":-2.277e-5,"MEAN_MOTION_DDOT":0},{"OBJECT_NAME":"STARLINK-6171","OBJECT_ID":"2023-083H","EPOCH":"2025-12-10T23:36:40.277664","MEAN_MOTION":15.02539481,"ECCENTRICITY":0.00011008,"INCLINATION":43.0028,"RA_OF_ASC_NODE":204.0482,"ARG_OF_PERICENTER":273.4569,"MEAN_ANOMALY":86.6148,"EPHEMERIS_TYPE":0,"CLASSIFICATION_TYPE":"U","NORAD_CAT_ID":56883,"ELEMENT_SET_NO":999,"REV_AT_EPOCH":13832,"BSTAR":6.8455466e-5,"MEAN_MOTION_DOT":7.21e-6,"MEAN_MOTION_DDOT":0},{"OBJECT_NAME":"STARLINK-5515","OBJECT_ID":"2023-083J","EPOCH":"2025-12-11T00:48:25.943040","MEAN_MOTION":15.02535563,"ECCENTRICITY":0.00010704,"INCLINATION":43.0028,"RA_OF_ASC_NODE":203.5593,"ARG_OF_PERICENTER":268.2945,"MEAN_ANOMALY":91.7775,"EPHEMERIS_TYPE":0,"CLASSIFICATION_TYPE":"U","NORAD_CAT_ID":56884,"ELEMENT_SET_NO":999,"REV_AT_EPOCH":13833,"BSTAR":6.719671e-6,"MEAN_MOTION_DOT":-1.13e-6,"MEAN_MOTION_DDOT":0}]
