STARLINK-30123          
1 56838U 23079R   25344.81300196  .00001367  00000+0  59191-4 0  9992
2 56838  43.0010 175.8628 0001380 264.3373  95.7321 15.27585372140150
STARLINK-30076          
1 56839U 23079S   25345.11389632 -.00000327  00000+0 -91275-5 0  9996
2 56839  43.0036 228.3698 0001190 268.7556  91.3150 15.02535202139565
STARLINK-30073          
1 56840U 23079T   25345.33335648 -.00016534  00000+0 -80210-4 0  9993
2 56840  42.9741  90.9996 0001574 243.6173 241.5681 15.80908917  6020
STARLINK-30078          
1 56841U 23079U   25344.66752579  .00003773  00000+0  14655-3 0  9993
2 56841  43.0020 202.1164 0001334 260.3290  99.7411 15.27584440139839
STARLINK-30135          
1 56842U 23079V   25345.08403138  .00000672  00000+0  64778-4 0  9992
2 56842  43.0027 228.9215 0001071 258.7069 101.3653 15.02540907139553
STARLINK-30137          
1 56843U 23079W   25345.07071464  .00000128  00000+0  24549-4 0  9993
2 56843  43.0025 228.8213 0000800 282.2756  77.7996 15.02535447139552
STARLINK-30136          
1 56844U 23079X   25344.96439303  .00000890  00000+0  80938-4 0  9991
2 56844  43.0031 229.7288 0000917 274.2599  85.8139 15.02538109139532
STARLINK-6206           
1 56876U 23083A   25344.99377535 -.00012493  00000+0 -91074-3 0  9998
2 56876  43.0042 204.1254 0001445 263.8151  96.2527 15.02563204138321
STARLINK-6209           
1 56877U 23083B   25344.98602706  .00000420  00000+0  46168-4 0  9999
2 56877  43.0021 204.0648 0001169 274.4943  85.5766 15.02537976138328
STARLINK-6182           
1 56878U 23083C   25344.92620286  .00000056  00000+0  19189-4 0  9995
2 56878  43.0021 204.4786 0001061 271.0061  89.0660 15.02540386138311
STARLINK-5707           
1 56879U 23083D   25344.92288369 -.00000607  00000+0 -29918-4 0  9993
2 56879  43.0027 204.4551 0000898 265.5778  94.4962 15.02526108138319
STARLINK-6177           
1 56880U 23083E   25344.97270800 -.00000776  00000+0 -42384-4 0  9990
2 56880  43.0021 203.9663 0001174 273.3935  86.6773 15.02537042138326
STARLINK-5853           
1 56881U 23083F   25345.05361679 -.00001370  00000+0 -86414-4 0  9999
2 56881  43.0022 203.7135 0001118 280.4687  79.6029 15.02522862138332
STARLINK-6175           
1 56882U 23083G   25345.04032400 -.00002277  00000+0 -15367-3 0  9991
2 56882  43.0049 203.6077 0001398 264.2163  95.8520 15.02502752138337
STARLINK-6171           
1 56883U 23083H   25344.98379951  .00000721  00000+0  68455-4 0  9996
2 56883  43.0028 204.0482 0001100 273.4569  86.6148 15.02539481138325
STARLINK-5515           
1 56884U 23083J   25345.03363360 -.00000113  00000+0  67197-5 0  9990
2 56884  43.0028 203.5593 0001070 268.2945  91.7775 15.02535563138330
